{"type": "FeatureCollection", "features": [ {"type": "Feature", "properties": {"norad_id": 66909, "name": "SILVERSAT", "group": "last-30-days", "lat": -45.91760328600702, "lon": 29.27560273108862, "alt_km": 415.0684877075828, "timestamp": "2025-12-10T07:43:53.550569+00:00", "meta": {"OBJECT_NAME": "SILVERSAT", "OBJECT_ID": "1998-067XV", "EPOCH": "2025-12-09T19:50:59.695584", "MEAN_MOTION": 15.51056405, "ECCENTRICITY": 0.0004877, "INCLINATION": 51.6304, "RA_OF_ASC_NODE": 156.8402, "ARG_OF_PERICENTER": 210.6195, "MEAN_ANOMALY": 149.451, "EPHEMERIS_TYPE": 0, "CLASSIFICATION_TYPE": "U", "NORAD_CAT_ID": 66909, "ELEMENT_SET_NO": 999, "REV_AT_EPOCH": 116, "BSTAR": 0.00154, "MEAN_MOTION_DOT": 0.00091886, "MEAN_MOTION_DDOT": 0}, "tle": {"line1": "1 66909U 98067XV  25343.82707981  .00091886  00000+0  15400-2 0  9992", "line2": "2 66909  51.6304 156.8402 0004877 210.6195 149.4510 15.51056405  1161"}}, "geometry": {"type": "Point", "coordinates": [29.27560273108862, -45.91760328600702]}}, {"type": "Feature", "properties": {"norad_id": 66910, "name": "1998-067XW", "group": "last-30-days", "lat": -48.709392837903344, "lon": 38.80972887248538, "alt_km": 415.31864867675995, "timestamp": "2025-12-10T07:43:53.550579+00:00", "meta": {"OBJECT_NAME": "1998-067XW", "OBJECT_ID": "1998-067XW", "EPOCH": "2025-12-09T18:16:30.088704", "MEAN_MOTION": 15.51233501, "ECCENTRICITY": 0.0005725, "INCLINATION": 51.6303, "RA_OF_ASC_NODE": 157.1524, "ARG_OF_PERICENTER": 193.6821, "MEAN_ANOMALY": 166.4014, "EPHEMERIS_TYPE": 0, "CLASSIFICATION_TYPE": "U", "NORAD_CAT_ID": 66910, "ELEMENT_SET_NO": 999, "REV_AT_EPOCH": 115, "BSTAR": 0.0012863, "MEAN_MOTION_DOT": 0.00077029, "MEAN_MOTION_DDOT": 0}, "tle": {"line1": "1 66910U 98067XW  25343.76145936  .00077029  00000+0  12863-2 0  9996", "line2": "2 66910  51.6303 157.1524 0005725 193.6821 166.4014 15.51233501  1151"}}, "geometry": {"type": "Point", "coordinates": [38.80972887248538, -48.709392837903344]}}, {"type": "Feature", "properties": {"norad_id": 66911, "name": "1998-067XX", "group": "last-30-days", "lat": -49.38492742029072, "lon": 41.86833261756186, "alt_km": 414.99291934684425, "timestamp": "2025-12-10T07:43:53.550589+00:00", "meta": {"OBJECT_NAME": "1998-067XX", "OBJECT_ID": "1998-067XX", "EPOCH": "2025-12-09T02:48:25.040736", "MEAN_MOTION": 15.51276485, "ECCENTRICITY": 0.00057034, "INCLINATION": 51.6296, "RA_OF_ASC_NODE": 160.3494, "ARG_OF_PERICENTER": 191.2268, "MEAN_ANOMALY": 168.8595, "EPHEMERIS_TYPE": 0, "CLASSIFICATION_TYPE": "U", "NORAD_CAT_ID": 66911, "ELEMENT_SET_NO": 999, "REV_AT_EPOCH": 104, "BSTAR": 0.0014245982, "MEAN_MOTION_DOT": 0.00085582, "MEAN_MOTION_DDOT": 0}, "tle": {"line1": "1 66911U 98067XX  25343.11695649  .00085582  00000+0  14246-2 0  9997", "line2": "2 66911  51.6296 160.3494 0005703 191.2268 168.8595 15.51276485  1046"}}, "geometry": {"type": "Point", "coordinates": [41.86833261756186, -49.38492742029072]}}, {"type": "Feature", "properties": {"norad_id": 66912, "name": "1998-067XY", "group": "last-30-days", "lat": -43.22750180754004, "lon": 22.528130943879173, "alt_km": 415.9542033621183, "timestamp": "2025-12-10T07:43:53.550599+00:00", "meta": {"OBJECT_NAME": "1998-067XY", "OBJECT_ID": "1998-067XY", "EPOCH": "2025-12-08T19:07:24.168000", "MEAN_MOTION": 15.50590071, "ECCENTRICITY": 0.00050436, "INCLINATION": 51.6301, "RA_OF_ASC_NODE": 161.961, "ARG_OF_PERICENTER": 202.8278, "MEAN_ANOMALY": 157.2488, "EPHEMERIS_TYPE": 0, "CLASSIFICATION_TYPE": "U", "NORAD_CAT_ID": 66912, "ELEMENT_SET_NO": 999, "REV_AT_EPOCH": 99, "BSTAR": 0.0009627216, "MEAN_MOTION_DOT": 0.00056065, "MEAN_MOTION_DDOT": 0}, "tle": {"line1": "1 66912U 98067XY  25342.79680750  .00056065  00000+0  96272-3 0  9992", "line2": "2 66912  51.6301 161.9610 0005043 202.8278 157.2488 15.50590071   993"}}, "geometry": {"type": "Point", "coordinates": [22.528130943879173, -43.22750180754004]}}, {"type": "Feature", "properties": {"norad_id": 66913, "name": "2025-284A", "group": "last-30-days", "lat": 11.479009329394977, "lon": -49.139705062504056, "alt_km": 504.68827318315834, "timestamp": "2025-12-10T07:43:53.550608+00:00", "meta": {"OBJECT_NAME": "2025-284A", "OBJECT_ID": "2025-284A", "EPOCH": "2025-12-09T19:55:29.921088", "MEAN_MOTION": 15.18869033, "ECCENTRICITY": 0.0011901, "INCLINATION": 80.4044, "RA_OF_ASC_NODE": 133.4525, "ARG_OF_PERICENTER": 213.2351, "MEAN_ANOMALY": 146.813, "EPHEMERIS_TYPE": 0, "CLASSIFICATION_TYPE": "U", "NORAD_CAT_ID": 66913, "ELEMENT_SET_NO": 999, "REV_AT_EPOCH": 68, "BSTAR": 0.00013678, "MEAN_MOTION_DOT": 2.875e-05, "MEAN_MOTION_DDOT": 0}, "tle": {"line1": "1 66913U 25284A   25343.83020742  .00002875  00000+0  13678-3 0  9998", "line2": "2 66913  80.4044 133.4525 0011901 213.2351 146.8130 15.18869033   680"}}, "geometry": {"type": "Point", "coordinates": [-49.139705062504056, 11.479009329394977]}}, {"type": "Feature", "properties": {"norad_id": 66914, "name": "2025-284B", "group": "last-30-days", "lat": 8.937307040950383, "lon": -48.69458971115572, "alt_km": 510.4874409465965, "timestamp": "2025-12-10T07:43:53.550618+00:00", "meta": {"OBJECT_NAME": "2025-284B", "OBJECT_ID": "2025-284B", "EPOCH": "2025-12-09T19:54:48.040416", "MEAN_MOTION": 15.1883089, "ECCENTRICITY": 0.0008113, "INCLINATION": 80.4056, "RA_OF_ASC_NODE": 133.4537, "ARG_OF_PERICENTER": 256.1185, "MEAN_ANOMALY": 103.914, "EPHEMERIS_TYPE": 0, "CLASSIFICATION_TYPE": "U", "NORAD_CAT_ID": 66914, "ELEMENT_SET_NO": 999, "REV_AT_EPOCH": 68, "BSTAR": 0.00072395, "MEAN_MOTION_DOT": 0.0001512, "MEAN_MOTION_DDOT": 0}, "tle": {"line1": "1 66914U 25284B   25343.82972269  .00015120  00000+0  72395-3 0  9996", "line2": "2 66914  80.4056 133.4537 0008113 256.1185 103.9140 15.18830890   683"}}, "geometry": {"type": "Point", "coordinates": [-48.69458971115572, 8.937307040950383]}}, {"type": "Feature", "properties": {"norad_id": 66915, "name": "HULIANWANG DIGUI 14A", "group": "last-30-days", "lat": -8.846175926453155, "lon": -45.35583816875202, "alt_km": 875.8206761313586, "timestamp": "2025-12-10T07:43:53.550632+00:00", "meta": {"OBJECT_NAME": "HULIANWANG DIGUI 14A", "OBJECT_ID": "2025-285A", "EPOCH": "2025-12-09T20:35:04.224192", "MEAN_MOTION": 14.05466228, "ECCENTRICITY": 0.0008102, "INCLINATION": 50.0033, "RA_OF_ASC_NODE": 129.034, "ARG_OF_PERICENTER": 273.0207, "MEAN_ANOMALY": 86.9771, "EPHEMERIS_TYPE": 0, "CLASSIFICATION_TYPE": "U", "NORAD_CAT_ID": 66915, "ELEMENT_SET_NO": 999, "REV_AT_EPOCH": 50, "BSTAR": 1.5476e-05, "MEAN_MOTION_DOT": -1.27e-06, "MEAN_MOTION_DDOT": 0}, "tle": {"line1": "1 66915U 25285A   25343.85768778 -.00000127  00000+0  15476-4 0  9999", "line2": "2 66915  50.0033 129.0340 0008102 273.0207  86.9771 14.05466228   502"}}, "geometry": {"type": "Point", "coordinates": [-45.35583816875202, -8.846175926453155]}}, {"type": "Feature", "properties": {"norad_id": 66916, "name": "HULIANWANG DIGUI 14B", "group": "last-30-days", "lat": -9.393347318943807, "lon": -44.88070319945062, "alt_km": 875.2994679931908, "timestamp": "2025-12-10T07:43:53.550647+00:00", "meta": {"OBJECT_NAME": "HULIANWANG DIGUI 14B", "OBJECT_ID": "2025-285B", "EPOCH": "2025-12-09T20:34:53.715360", "MEAN_MOTION": 14.05512717, "ECCENTRICITY": 0.0006963, "INCLINATION": 50.0044, "RA_OF_ASC_NODE": 129.0345, "ARG_OF_PERICENTER": 267.7088, "MEAN_ANOMALY": 92.302, "EPHEMERIS_TYPE": 0, "CLASSIFICATION_TYPE": "U", "NORAD_CAT_ID": 66916, "ELEMENT_SET_NO": 999, "REV_AT_EPOCH": 50, "BSTAR": 1.5447e-05, "MEAN_MOTION_DOT": -1.27e-06, "MEAN_MOTION_DDOT": 0}, "tle": {"line1": "1 66916U 25285B   25343.85756615 -.00000127  00000+0  15447-4 0  9995", "line2": "2 66916  50.0044 129.0345 0006963 267.7088  92.3020 14.05512717   503"}}, "geometry": {"type": "Point", "coordinates": [-44.88070319945062, -9.393347318943807]}}, {"type": "Feature", "properties": {"norad_id": 66917, "name": "HULIANWANG DIGUI 14C", "group": "last-30-days", "lat": -10.155730296786215, "lon": -44.21897478912479, "alt_km": 875.6998148268294, "timestamp": "2025-12-10T07:43:53.550657+00:00", "meta": {"OBJECT_NAME": "HULIANWANG DIGUI 14C", "OBJECT_ID": "2025-285C", "EPOCH": "2025-12-09T20:34:38.180640", "MEAN_MOTION": 14.05578744, "ECCENTRICITY": 0.0007545, "INCLINATION": 50.0009, "RA_OF_ASC_NODE": 129.0302, "ARG_OF_PERICENTER": 275.4964, "MEAN_ANOMALY": 84.5081, "EPHEMERIS_TYPE": 0, "CLASSIFICATION_TYPE": "U", "NORAD_CAT_ID": 66917, "ELEMENT_SET_NO": 999, "REV_AT_EPOCH": 50, "BSTAR": -2.7368e-06, "MEAN_MOTION_DOT": -1.57e-06, "MEAN_MOTION_DDOT": 0}, "tle": {"line1": "1 66917U 25285C   25343.85738635 -.00000157  00000+0 -27368-5 0  9998", "line2": "2 66917  50.0009 129.0302 0007545 275.4964  84.5081 14.05578744   506"}}, "geometry": {"type": "Point", "coordinates": [-44.21897478912479, -10.155730296786215]}}, {"type": "Feature", "properties": {"norad_id": 66918, "name": "HULIANWANG DIGUI 14D", "group": "last-30-days", "lat": -11.47673351023194, "lon": -43.05639017304865, "alt_km": 874.9618509799266, "timestamp": "2025-12-10T07:43:53.550669+00:00", "meta": {"OBJECT_NAME": "HULIANWANG DIGUI 14D", "OBJECT_ID": "2025-285D", "EPOCH": "2025-12-09T20:34:12.361728", "MEAN_MOTION": 14.05703287, "ECCENTRICITY": 0.0006464, "INCLINATION": 50.004, "RA_OF_ASC_NODE": 129.0306, "ARG_OF_PERICENTER": 270.5625, "MEAN_ANOMALY": 89.454, "EPHEMERIS_TYPE": 0, "CLASSIFICATION_TYPE": "U", "NORAD_CAT_ID": 66918, "ELEMENT_SET_NO": 999, "REV_AT_EPOCH": 50, "BSTAR": 5.3929e-06, "MEAN_MOTION_DOT": -1.43e-06, "MEAN_MOTION_DDOT": 0}, "tle": {"line1": "1 66918U 25285D   25343.85708752 -.00000143  00000+0  53929-5 0  9992", "line2": "2 66918  50.0040 129.0306 0006464 270.5625  89.4540 14.05703287   501"}}, "geometry": {"type": "Point", "coordinates": [-43.05639017304865, -11.47673351023194]}}]}